{
  "type": "FeatureCollection",
  "features": [
    {
      "type": "Feature",
      "properties": {
        "norad_id": 44334,
        "name": "EUTELSAT 7C",
        "group": "eutelsat",
        "lat": -0.013770849375723097,
        "lon": 179.36514156243246,
        "alt_km": 35781.50857309879,
        "timestamp": "2025-12-16T05:49:08.893443+00:00",
        "meta_object_name": "EUTELSAT 7C",
        "meta_object_id": "2019-034B",
        "meta_epoch": "2025-12-15T21:58:54.342336",
        "meta_mean_motion": 1.002713,
        "meta_eccentricity": 0.00030896,
        "meta_inclination": 0.0727,
        "meta_ra_of_asc_node": 177.6823,
        "meta_arg_of_pericenter": 70.5901,
        "meta_mean_anomaly": 173.2556,
        "meta_ephemeris_type": 0,
        "meta_classification_type": "U",
        "meta_norad_cat_id": 44334,
        "meta_element_set_no": 999,
        "meta_rev_at_epoch": 499,
        "meta_bstar": 0,
        "meta_mean_motion_dot": 7.1e-07,
        "meta_mean_motion_ddot": 0,
        "tle_line1": "1 44334U 19034B   25349.91590674  .00000071  00000+0  00000+0 0  9995",
        "tle_line2": "2 44334   0.0727 177.6823 0003089  70.5901 173.2556  1.00271300  4997"
      },
      "geometry": {
        "type": "Point",
        "coordinates": [
          179.36514156243246,
          -0.013770849375723097
        ]
      }
    },
    {
      "type": "Feature",
      "properties": {
        "norad_id": 44624,
        "name": "EUTELSAT 5 WEST B",
        "group": "eutelsat",
        "lat": -0.014332903009118887,
        "lon": 167.37947411184982,
        "alt_km": 35787.560459873144,
        "timestamp": "2025-12-16T05:49:08.893454+00:00",
        "meta_object_name": "EUTELSAT 5 WEST B",
        "meta_object_id": "2019-067A",
        "meta_epoch": "2025-12-15T01:22:44.632992",
        "meta_mean_motion": 1.00272503,
        "meta_eccentricity": 0.00032173,
        "meta_inclination": 0.0649,
        "meta_ra_of_asc_node": 338.3897,
        "meta_arg_of_pericenter": 286.2375,
        "meta_mean_anomaly": 195.0282,
        "meta_ephemeris_type": 0,
        "meta_classification_type": "U",
        "meta_norad_cat_id": 44624,
        "meta_element_set_no": 999,
        "meta_rev_at_epoch": 2259,
        "meta_bstar": 0,
        "meta_mean_motion_dot": -2.2e-07,
        "meta_mean_motion_ddot": 0,
        "tle_line1": "1 44624U 19067A   25349.05746103 -.00000022  00000+0  00000+0 0  9995",
        "tle_line2": "2 44624   0.0649 338.3897 0003217 286.2375 195.0282  1.00272503 22593"
      },
      "geometry": {
        "type": "Point",
        "coordinates": [
          167.37947411184982,
          -0.014332903009118887
        ]
      }
    },
    {
      "type": "Feature",
      "properties": {
        "norad_id": 45027,
        "name": "EUTELSAT KONNECT",
        "group": "eutelsat",
        "lat": 0.057687004920369586,
        "lon": 179.59349686741777,
        "alt_km": 35788.03078203626,
        "timestamp": "2025-12-16T05:49:08.893466+00:00",
        "meta_object_name": "EUTELSAT KONNECT",
        "meta_object_id": "2020-005B",
        "meta_epoch": "2025-12-15T21:00:38.918016",
        "meta_mean_motion": 1.00270513,
        "meta_eccentricity": 0.00013543,
        "meta_inclination": 0.0713,
        "meta_ra_of_asc_node": 96.4477,
        "meta_arg_of_pericenter": 189.8624,
        "meta_mean_anomaly": 120.8248,
        "meta_ephemeris_type": 0,
        "meta_classification_type": "U",
        "meta_norad_cat_id": 45027,
        "meta_element_set_no": 999,
        "meta_rev_at_epoch": 2249,
        "meta_bstar": 0,
        "meta_mean_motion_dot": 7.2e-07,
        "meta_mean_motion_ddot": 0,
        "tle_line1": "1 45027U 20005B   25349.87545044  .00000072  00000+0  00000+0 0  9992",
        "tle_line2": "2 45027   0.0713  96.4477 0001354 189.8624 120.8248  1.00270513 22490"
      },
      "geometry": {
        "type": "Point",
        "coordinates": [
          179.59349686741777,
          0.057687004920369586
        ]
      }
    },
    {
      "type": "Feature",
      "properties": {
        "norad_id": 49056,
        "name": "EUTELSAT QUANTUM",
        "group": "eutelsat",
        "lat": -0.025132500218612356,
        "lon": -139.9064567536757,
        "alt_km": 35777.48117846589,
        "timestamp": "2025-12-16T05:49:08.893477+00:00",
        "meta_object_name": "EUTELSAT QUANTUM",
        "meta_object_id": "2021-069B",
        "meta_epoch": "2025-12-15T22:10:30.730656",
        "meta_mean_motion": 1.0027326,
        "meta_eccentricity": 0.00035735,
        "meta_inclination": 0.0113,
        "meta_ra_of_asc_node": 1.7174,
        "meta_arg_of_pericenter": 275.9192,
        "meta_mean_anomaly": 187.5285,
        "meta_ephemeris_type": 0,
        "meta_classification_type": "U",
        "meta_norad_cat_id": 49056,
        "meta_element_set_no": 999,
        "meta_rev_at_epoch": 1609,
        "meta_bstar": 0,
        "meta_mean_motion_dot": 1.48e-06,
        "meta_mean_motion_ddot": 0,
        "tle_line1": "1 49056U 21069B   25349.92396679  .00000148  00000+0  00000+0 0  9997",
        "tle_line2": "2 49056   0.0113   1.7174 0003573 275.9192 187.5285  1.00273260 16097"
      },
      "geometry": {
        "type": "Point",
        "coordinates": [
          -139.9064567536757,
          -0.025132500218612356
        ]
      }
    },
    {
      "type": "Feature",
      "properties": {
        "norad_id": 53765,
        "name": "EUTELSAT KONNECT VHTS",
        "group": "eutelsat",
        "lat": 0.05118487282800219,
        "lon": 175.1246552717078,
        "alt_km": 35779.417786576756,
        "timestamp": "2025-12-16T05:49:08.893489+00:00",
        "meta_object_name": "EUTELSAT KONNECT VHTS",
        "meta_object_id": "2022-110A",
        "meta_epoch": "2025-12-15T06:33:09.991584",
        "meta_mean_motion": 1.0027256,
        "meta_eccentricity": 0.00026657,
        "meta_inclination": 0.0637,
        "meta_ra_of_asc_node": 102.1934,
        "meta_arg_of_pericenter": 128.1702,
        "meta_mean_anomaly": 314.8436,
        "meta_ephemeris_type": 0,
        "meta_classification_type": "U",
        "meta_norad_cat_id": 53765,
        "meta_element_set_no": 999,
        "meta_rev_at_epoch": 498,
        "meta_bstar": 0,
        "meta_mean_motion_dot": 3.9e-07,
        "meta_mean_motion_ddot": 0,
        "tle_line1": "1 53765U 22110A   25349.27303231  .00000039  00000+0  00000+0 0  9996",
        "tle_line2": "2 53765   0.0637 102.1934 0002665 128.1702 314.8436  1.00272560  4987"
      },
      "geometry": {
        "type": "Point",
        "coordinates": [
          175.1246552717078,
          0.05118487282800219
        ]
      }
    },
    {
      "type": "Feature",
      "properties": {
        "norad_id": 54048,
        "name": "EUTELSAT HOTBIRD 13F",
        "group": "eutelsat",
        "lat": -0.055534153997420385,
        "lon": -174.59744550457742,
        "alt_km": 35795.884638461524,
        "timestamp": "2025-12-16T05:49:08.893501+00:00",
        "meta_object_name": "EUTELSAT HOTBIRD 13F",
        "meta_object_id": "2022-134A",
        "meta_epoch": "2025-12-14T22:02:26.653056",
        "meta_mean_motion": 1.0027139,
        "meta_eccentricity": 0.00023413,
        "meta_inclination": 0.0492,
        "meta_ra_of_asc_node": 293.4772,
        "meta_arg_of_pericenter": 68.5165,
        "meta_mean_anomaly": 65.4415,
        "meta_ephemeris_type": 0,
        "meta_classification_type": "U",
        "meta_norad_cat_id": 54048,
        "meta_element_set_no": 999,
        "meta_rev_at_epoch": 1152,
        "meta_bstar": 0,
        "meta_mean_motion_dot": 1.07e-06,
        "meta_mean_motion_ddot": 0,
        "tle_line1": "1 54048U 22134A   25348.91836404  .00000107  00000+0  00000+0 0  9996",
        "tle_line2": "2 54048   0.0492 293.4772 0002341  68.5165  65.4415  1.00271390 11520"
      },
      "geometry": {
        "type": "Point",
        "coordinates": [
          -174.59744550457742,
          -0.055534153997420385
        ]
      }
    },
    {
      "type": "Feature",
      "properties": {
        "norad_id": 54225,
        "name": "EUTELSAT HOTBIRD 13G",
        "group": "eutelsat",
        "lat": -0.04372219286328759,
        "lon": -174.59203412721777,
        "alt_km": 35778.44331743883,
        "timestamp": "2025-12-16T05:49:08.893512+00:00",
        "meta_object_name": "EUTELSAT HOTBIRD 13G",
        "meta_object_id": "2022-146A",
        "meta_epoch": "2025-12-15T18:35:09.269376",
        "meta_mean_motion": 1.00272541,
        "meta_eccentricity": 0.0001793,
        "meta_inclination": 0.0499,
        "meta_ra_of_asc_node": 235.66,
        "meta_arg_of_pericenter": 298.8114,
        "meta_mean_anomaly": 201.9832,
        "meta_ephemeris_type": 0,
        "meta_classification_type": "U",
        "meta_norad_cat_id": 54225,
        "meta_element_set_no": 999,
        "meta_rev_at_epoch": 562,
        "meta_bstar": 0,
        "meta_mean_motion_dot": 1.1e-06,
        "meta_mean_motion_ddot": 0,
        "tle_line1": "1 54225U 22146A   25349.77441284  .00000110  00000+0  00000+0 0  9993",
        "tle_line2": "2 54225   0.0499 235.6600 0001793 298.8114 201.9832  1.00272541  5627"
      },
      "geometry": {
        "type": "Point",
        "coordinates": [
          -174.59203412721777,
          -0.04372219286328759
        ]
      }
    }
  ]
}